[{"OBJECT_NAME":"STARLINK-32123","OBJECT_ID":"2024-132G","EPOCH":"2026-03-09T22:03:48.955104","MEAN_MOTION":15.30174058,"ECCENTRICITY":0.00013242,"INCLINATION":53.162,"RA_OF_ASC_NODE":38.7293,"ARG_OF_PERICENTER":93.9693,"MEAN_ANOMALY":266.1459,"EPHEMERIS_TYPE":0,"CLASSIFICATION_TYPE":"U","NORAD_CAT_ID":60284,"ELEMENT_SET_NO":999,"REV_AT_EPOCH":9177,"BSTAR":-7.5109e-7,"MEAN_MOTION_DOT":-3.81e-6,"MEAN_MOTION_DDOT":0},{"OBJECT_NAME":"KUIPER-00226","OBJECT_ID":"2026-030X","EPOCH":"2026-03-09T15:01:51.726432","MEAN_MOTION":15.30655594,"ECCENTRICITY":0.0017713,"INCLINATION":51.8814,"RA_OF_ASC_NODE":220.1252,"ARG_OF_PERICENTER":64.2781,"MEAN_ANOMALY":296.003,"EPHEMERIS_TYPE":0,"CLASSIFICATION_TYPE":"U","NORAD_CAT_ID":67785,"ELEMENT_SET_NO":999,"REV_AT_EPOCH":507,"BSTAR":0.001553,"MEAN_MOTION_DOT":0.00046834,"MEAN_MOTION_DDOT":0}]
